STARLINK-1354           
1 45562U 20025AH  24240.29180257  .00007559  00000+0  52571-3 0  9995
2 45562  53.0528  77.8503 0001268  90.6131 269.5004 15.06405894241054
STARLINK-1355           
1 45563U 20025AJ  24239.90845805  .00000472  00000+0  50584-4 0  9999
2 45563  53.0538  79.5692 0001437  89.1070 271.0084 15.06401710240392
STARLINK-1356           
1 45564U 20025AK  24239.90477592  .00000808  00000+0  73124-4 0  9992
2 45564  53.0537  79.5902 0001179  82.7261 277.3862 15.06395860240391
STARLINK-1357           
1 45565U 20025AL  24239.89739915 -.00000193  00000+0  59619-5 0  9993
2 45565  53.0537  79.6252 0001295  78.0710 282.0424 15.06396762240992
STARLINK-1358           
1 45566U 20025AM  24240.24387776  .00006275  00000+0  43984-3 0  9991
2 45566  53.0546  78.0657 0001414  82.5950 277.5200 15.06396289241046
STARLINK-1361           
1 45567U 20025AN  24240.25493939 -.00001044  00000+0 -51190-4 0  9992
2 45567  53.0566  78.0264 0001427 100.9449 259.1701 15.06393847241055
STARLINK-1363           
1 45568U 20025AP  24240.26970351  .00003821  00000+0  27531-3 0  9996
2 45568  53.0540  78.1946 0001024  94.6349 265.4757 15.06396904241044
STARLINK-1366           
1 45569U 20025AQ  24240.25862779  .00002158  00000+0  16375-3 0  9996
2 45569  53.0556  78.0056 0001579  95.0493 265.0676 15.06399417241041
STARLINK-1376           
1 45570U 20025AR  24240.25125550  .00002411  00000+0  18071-3 0  9994
2 45570  53.0545  78.0339 0001449  88.5277 271.5878 15.06393801241045
STARLINK-1320           
1 45572U 20025AT  24240.24709745  .00004623  00000+0  32894-3 0  9995
2 45572  53.0544  63.0592 0001343  98.0185 262.0956 15.06409768241264
STARLINK-1321           
1 45573U 20025AU  24239.24222086  .00002828  00000+0  20861-3 0  9998
2 45573  53.0544  72.5658 0001355  74.3825 285.7314 15.06408221240738
STARLINK-1328           
1 45576U 20025AX  24240.22267848  .00000307  00000+0  39474-4 0  9997
2 45576  53.0543  68.1587 0001390  89.1180 270.9968 15.06398966241195
STARLINK-1331           
1 45578U 20025AZ  24240.21531001  .00001057  00000+0  89809-4 0  9993
2 45578  53.0543  68.1902 0001470  92.8781 267.2376 15.06405360241194
STARLINK-1332           
1 45579U 20025BA  24240.15635015  .00001231  00000+0  10152-3 0  9995
2 45579  53.0552  28.6234 0001368  91.1860 268.9286 15.06401817241731
STARLINK-1333           
1 45580U 20025BB  24240.28810735  .00002085  00000+0  15880-3 0  9996
2 45580  53.0560  77.8665 0001444  99.5926 260.5226 15.06404690241055
STARLINK-1335           
1 45581U 20025BC  24240.22636619 -.00000006  00000+0  18509-4 0  9992
2 45581  53.0545  68.1432 0001531  84.1692 275.9471 15.06398756241182
STARLINK-1337           
1 45582U 20025BD  24240.24847750  .00007711  00000+0  53601-3 0  9995
2 45582  53.0545  68.0467 0001095  93.5203 266.5912 15.06396800241181
STARLINK-1347           
1 45586U 20025BH  24240.24110778  .00001437  00000+0  11534-3 0  9990
2 45586  53.0540  68.0821 0001412  86.1435 273.9715 15.06404348241171
STARLINK-1349           
1 45587U 20025BJ  24239.94623350  .00000849  00000+0  75907-4 0  9992
2 45587  53.0549  69.4020 0001440  85.7410 274.3743 15.06398562241149
STARLINK-1360           
1 45588U 20025BK  24240.24814891  .00030188  00000+0  20815-2 0  9995
2 45588  53.0542  67.9800 0001218  72.1853 287.9268 15.05592707241188
STARLINK-1364           
1 45589U 20025BL  24240.25216344  .00004432  00000+0  31621-3 0  9997
2 45589  53.0541  68.0290 0001350  92.1531 267.9612 15.06401069241187
STARLINK-1365           
1 45590U 20025BM  24240.33417249  .00013188  00000+0  90282-3 0  9991
2 45590  53.0537  97.6629 0001198  83.7774 276.3351 15.06390660240797
STARLINK-1443           
1 45660U 20035D   24239.85500382  .00000399  00000+0  45657-4 0  9993
2 45660  53.0557  59.8108 0001373  87.0786 273.0360 15.06399172234350
STARLINK-1444           
1 45661U 20035E   24240.58334491  .00092072  00000+0  35162-2 0  9999
2 45661  53.0654  39.2997 0002292  86.1148  91.8542 15.25876494  5903
STARLINK-1445           
1 45662U 20035F   24240.21991469  .00001906  00000+0  14678-3 0  9990
2 45662  53.0542  58.1770 0001400  90.8240 269.2910 15.06404041234407
STARLINK-1446           
1 45663U 20035G   24240.20951989  .00012191  00000+0  80358-3 0  9999
2 45663  53.0553  58.0739 0000205 191.0185 169.0800 15.07864641234400
STARLINK-1448           
1 45665U 20035J   24240.19042781  .00001789  00000+0  13894-3 0  9992
2 45665  53.0548  58.3076 0001461  89.7289 270.3868 15.06405545234397
STARLINK-1449           
1 45666U 20035K   24240.16094577  .00023633  00000+0  96579-3 0  9993
2 45666  53.0479  40.6154 0004324  64.7844 295.3601 15.24271246234642
STARLINK-1451           
1 45668U 20035M   24239.86242011  .00009871  00000+0  68041-3 0  9999
2 45668  53.0546  60.0971 0001239  86.7080 273.4050 15.06414091234350
STARLINK-1452           
1 45669U 20035N   24240.21254845  .00000493  00000+0  51994-4 0  9990
2 45669  53.0556  58.2106 0001310  99.8030 260.3107 15.06388668234405
STARLINK-1453           
1 45670U 20035P   24240.13789916  .00013231  00000+0  90561-3 0  9991
2 45670  53.0553  28.5446 0001049  77.0556 283.0550 15.06395311234701
STARLINK-1454           
1 45671U 20035Q   24240.21623182  .00001269  00000+0  10399-3 0  9992
2 45671  53.0530  58.1911 0000093 228.8880 131.2101 15.06405993234396
STARLINK-1455           
1 45672U 20035R   24240.58334491  .00160553  00000+0  96560-3 0  9991
2 45672  53.0492   5.7666 0008078 333.3293 213.8244 15.76709835  6065
STARLINK-1456           
1 45673U 20035S   24240.23097020  .00001998  00000+0  15298-3 0  9994
2 45673  53.0542  58.1261 0001482  90.7932 269.3227 15.06405079234416
STARLINK-1457           
1 45674U 20035T   24240.23833770  .00004748  00000+0  33749-3 0  9992
2 45674  53.0553  58.0944 0001246  92.4053 267.7078 15.06390956234386
STARLINK-1458           
1 45675U 20035U   24240.22729299  .00001807  00000+0  14017-3 0  9992
2 45675  53.0560  58.1445 0001502  82.8715 277.2445 15.06400336234372
STARLINK-1460           
1 45676U 20035V   24240.19779918 -.00000051  00000+0  15500-4 0  9992
2 45676  53.0551  58.2716 0001492  88.0868 272.0292 15.06396623234365
STARLINK-1392           
1 45677U 20035W   24239.87712851 -.00000176  00000+0  70515-5 0  9995
2 45677  53.0557  59.7126 0001398  95.3089 264.8059 15.06390233234354
STARLINK-1393           
1 45678U 20035X   24240.20241090  .00001129  00000+0  94656-4 0  9996
2 45678  53.0558  48.2534 0001507  86.3365 273.7796 15.06398213234523
STARLINK-1394           
1 45679U 20035Y   24239.94070796  .00000337  00000+0  41527-4 0  9998
2 45679  53.0555  49.4305 0000775  76.4666 283.6409 15.06394125234507
STARLINK-1395           
1 45680U 20035Z   24239.94807174  .00001036  00000+0  88407-4 0  9993
2 45680  53.0546  49.3971 0001361  94.9766 265.1379 15.06405912234491
STARLINK-1397           
1 45682U 20035AB  24239.81907081  .00001220  00000+0  10080-3 0  9995
2 45682  53.0549  49.9760 0001352  85.5144 274.5999 15.06399805234477
STARLINK-1399           
1 45683U 20035AC  24240.19872193  .00001894  00000+0  14603-3 0  9996
2 45683  53.0562  48.2714 0001531  80.2213 279.8949 15.06401993234545
STARLINK-1401           
1 45684U 20035AD  24240.58334491  .00107558  00000+0  25897-2 0  9994
2 45684  53.0499 352.9830 0003991 285.8020 298.3273 15.40439820  5887
STARLINK-1402           
1 45685U 20035AE  24240.17052982  .00005673  00000+0  39935-3 0  9996
2 45685  53.0554  42.8180 0001267  91.9095 268.2039 15.06406587234623
STARLINK-1404           
1 45686U 20035AF  24240.16554736  .00005055  00000+0  35806-3 0  9997
2 45686  53.0553  48.4183 0001262  77.3054 282.8076 15.06396874234547
STARLINK-1408           
1 45688U 20035AH  24240.50919956  .00051035  00000+0  11394-2 0  9990
2 45688  53.0767 320.8436 0003417  97.6083 262.5310 15.43058960235836
STARLINK-1413           
1 45689U 20035AJ  24240.18397857  .00002498  00000+0  18655-3 0  9992
2 45689  53.0541  48.3347 0001171  87.7063 272.4060 15.06398431234451
STARLINK-1414           
1 45690U 20035AK  24240.20980350  .00001417  00000+0  11398-3 0  9990
2 45690  53.0547  48.4388 0001452 109.1924 250.9222 15.06407873234487
STARLINK-1416           
1 45692U 20035AM  24240.58334491  .00639635  00000+0  38794-2 0  9999
2 45692  53.0543  31.4920 0000880  67.2269 175.6375 15.75175243  5936
STARLINK-1417           
1 45693U 20035AN  24240.18029271  .00002002  00000+0  15324-3 0  9990
2 45693  53.0569  48.3554 0001707  93.8403 266.2782 15.06401194234539
STARLINK-1420           
1 45695U 20035AQ  24240.11483446  .00001198  00000+0  99268-4 0  9998
2 45695  53.0553  28.6358 0001218  96.0924 264.0204 15.06405014234818
STARLINK-1422           
1 45696U 20035AR  24239.19613496  .00003458  00000+0  25083-3 0  9999
2 45696  53.0547  52.7709 0001028  85.5449 274.5657 15.06408557234389
STARLINK-1351           
1 45697U 20035AS  24239.90200269  .00000176  00000+0  30717-4 0  9994
2 45697  53.0551  29.6016 0001649  88.5957 271.5220 15.06397940234370
STARLINK-1398           
1 45699U 20035AU  24240.14527848  .00004128  00000+0  29582-3 0  9997
2 45699  53.0552  28.5125 0001410  79.4395 280.6753 15.06404282234812
STARLINK-1400           
1 45700U 20035AV  24240.14158718  .00012479  00000+0  85519-3 0  9996
2 45700  53.0563  28.5258 0001425  85.7722 274.3430 15.06399472234810
STARLINK-1403           
1 45701U 20035AW  24239.90568694  .00004317  00000+0  30854-3 0  9991
2 45701  53.0562  29.5833 0001223  77.4003 282.7123 15.06402322234772
STARLINK-1405           
1 45702U 20035AX  24240.15264459  .00004003  00000+0  28745-3 0  9991
2 45702  53.0554  28.4792 0001581  91.0072 269.1099 15.06407936234813
STARLINK-1407           
1 45703U 20035AY  24239.75087910 -.00000938  00000+0 -44130-4 0  9993
2 45703  53.0553  30.2831 0001195  82.4442 277.6683 15.06391732234756
